VSP RF A1               
1 59135U 24043AP  26066.03073316  .00000577  00000+0  25199-4 0  9997
2 59135  97.5247 201.5379 0009431 234.6315 125.4042 15.26179596111403
STARLINK-35924          
1 66516U 25265A   26068.93258843  .00041443  00000+0  15061-2 0  9998
2 66516  43.0005 276.3057 0002201 256.5279 103.5327 15.27601307 17156
