[{"OBJECT_NAME":"VSP RF A1","OBJECT_ID":"2024-043AP","EPOCH":"2026-03-07T00:44:15.345024","MEAN_MOTION":15.26179596,"ECCENTRICITY":0.00094313,"INCLINATION":97.5247,"RA_OF_ASC_NODE":201.5379,"ARG_OF_PERICENTER":234.6315,"MEAN_ANOMALY":125.4042,"EPHEMERIS_TYPE":0,"CLASSIFICATION_TYPE":"U","NORAD_CAT_ID":59135,"ELEMENT_SET_NO":999,"REV_AT_EPOCH":11140,"BSTAR":2.5198753e-5,"MEAN_MOTION_DOT":5.77e-6,"MEAN_MOTION_DDOT":0},{"OBJECT_NAME":"STARLINK-35924","OBJECT_ID":"2025-265A","EPOCH":"2026-03-09T22:22:55.640352","MEAN_MOTION":15.27601307,"ECCENTRICITY":0.00022008,"INCLINATION":43.0005,"RA_OF_ASC_NODE":276.3057,"ARG_OF_PERICENTER":256.5279,"MEAN_ANOMALY":103.5327,"EPHEMERIS_TYPE":0,"CLASSIFICATION_TYPE":"U","NORAD_CAT_ID":66516,"ELEMENT_SET_NO":999,"REV_AT_EPOCH":1715,"BSTAR":0.0015060725,"MEAN_MOTION_DOT":0.00041443,"MEAN_MOTION_DDOT":0}]
